1 12963U 81053EJ  18211.63067222 +.00000121 +00000-0 +99201-4 0  9998
2 12963 082.9471 168.7276 0026683 062.8224 059.1746 13.81052974848327
1 12964U 81053EK  18212.17601580  .00000030  00000-0  14003-4 0  9996
2 12964  82.9458 106.0095 0037920 317.2533 195.6895 13.80164570852087
1 12966U 81053EM  18211.78872646  .00000179  00000-0  10611-3 0  9991
2 12966  82.9488 339.5266 0033586  95.4883  58.6544 14.01984711861251
1 13017U 81053EP  18211.86053505  .00000244  00000-0  16775-3 0  9993
2 13017  82.9331 351.2363 0032040 268.7973 245.0866 13.95392454855402
1 13018U 81053EQ  18211.49819711 +.00000344 +00000-0 +26630-3 0  9994
2 13018 082.6769 119.2048 0051178 215.9048 266.3548 13.89599945845035
1 13019U 81053ER  18211.74750552 +.00000364 +00000-0 +26384-3 0  9998
2 13019 082.9451 136.4991 0078857 344.8496 043.1922 13.92589064844904
1 13020U 81053ES  18211.62399502  .00000201  00000-0  18245-3 0  9998
2 13020  82.6917 279.7345 0116011 256.4201 272.3183 13.76473430834366
1 13021U 81053ET  18211.69262981  .00000452  00000-0  30193-3 0  9990
2 13021  83.1484 292.4531 0022392 347.9845 164.4410 13.98843397856870
1 13022U 81053EU  18211.98326837  .00000230  00000-0  11126-3 0  9993
2 13022  82.9173  33.2103 0045955 319.3821 198.8585 14.14014992878481
1 13024U 81053EW  18211.80533478 -.00000433  00000-0 -30542-3 0  9997
2 13024  82.9302 333.5734 0050231 195.1335 317.5857 13.99482061857270
1 13026U 81053EX  18212.54219837  .00000810  00000-0  28725-3 0  9998
2 13026  82.9379  58.5618 0017934 153.9447 235.1092 14.33372256880174
1 13029U 82001C   18212.08908373  .00000220  00000-0  51172-4 0  9992
2 13029  73.9715 244.5048 0010631 278.8945 112.0778 14.60855763874943
1 13030U 82001D   18211.87953562 +.00000355 +00000-0 +49824-4 0  9990
2 13030 074.0195 246.5830 0011813 146.3423 269.3533 14.81518463942502
1 13053U 81053EY  18211.79618550  .00000187  00000-0  19481-3 0  9995
2 13053  83.0795 328.4609 0123301 131.0977  22.3096 13.66596245830129
1 13073U 81053EZ  18211.87274685 +.00000066 +00000-0 +54307-4 0  9996
2 13073 082.9373 261.9701 0088352 171.6704 314.7113 13.71695763850658
1 13074U 81053FA  18211.87550539 +.00000159 +00000-0 +13395-3 0  9996
2 13074 082.9473 177.2812 0032838 096.4077 292.6465 13.81555191858818
1 13455U 81053FB  18212.46393841  .00006638  00000-0  48931-3 0  9998
2 13455  82.8443 105.4093 0008776  72.7856 287.4330 15.03133683892700
1 13456U 81053FC  18211.98501016  .00000714  00000-0  65449-3 0  9992
2 13456  82.8482  24.2120 0160976 215.9385 316.9151 13.76122216815377
1 13460U 81053FG  18212.01204243  .00000184  00000-0  17046-3 0  9995
2 13460  83.1307 230.2832 0088472 165.8943 222.6472 13.75148997827144
1 13462U 81053FJ  18211.95865870 +.00000325 +00000-0 +34579-3 0  9995
2 13462 082.8145 031.6974 0170652 197.5691 321.9805 13.65403405793889
1 13464U 81053FL  18211.49217017  .00000808  00000-0  38623-3 0  9990
2 13464  82.9160 212.9451 0044512 108.9257  45.3856 14.17480305847449
1 13465U 81053FM  18212.47825553  .00064235  00000-0  92694-3 0  9992
2 13465  82.9627 268.1835 0004929 151.3966 208.7560 15.55719024579685
1 13466U 81053FN  18212.51261795  .00000016  00000-0  13255-6 0  9996
2 13466  83.0721  60.9304 0144189 143.5651 228.6683 13.57077080790624
1 13467U 81053FP  18210.92548878  .00000679  00000-0  26222-3 0  9990
2 13467  82.9500  66.2879 0025081 155.8315 267.9803 14.28759492876242
1 13468U 81053FQ  18211.52494844 +.00000176 +00000-0 +13672-3 0  9998
2 13468 082.7068 241.9678 0070369 080.6854 071.8020 13.85985768817664
1 13470U 81053FS  18211.29050064 +.00000096 +00000-0 +14057-3 0  9996
2 13470 082.8180 046.7221 0238912 165.7878 318.5257 13.33539459758919
1 13471U 81053FT  18212.51084066  .00000327  00000-0  23271-3 0  9997
2 13471  82.8114 280.2922 0052971 336.5974 115.6473 13.94054645826169
1 13472U 81053FU  18211.79313101 +.00000801 +00000-0 +41070-3 0  9996
2 13472 082.8565 141.2605 0014419 290.0377 099.5593 14.14278428840709
1 13473U 81053FV  18211.73859703 +.00000364 +00000-0 +19370-3 0  9996
2 13473 082.8393 127.1189 0050406 333.8271 055.0824 14.10423058840783
1 13476U 81053FW  18211.44470001  .00000392  00000-0  27789-3 0  9991
2 13476  82.8047 255.4297 0051680 264.7831 158.6931 13.94916882827547
1 13477U 81053FX  18211.03348865  .00000431  00000-0  21128-3 0  9994
2 13477  82.9975  65.1805 0066815  14.1875 346.1159 14.14583626836614
1 13478U 81053FY  18211.88480275 -.00000009 +00000-0 -23220-4 0  9999
2 13478 082.8691 171.5130 0094051 206.0770 183.0585 13.78037738812411
1 13479U 81053FZ  18211.22159941  .00000813  00000-0  13943-3 0  9992
2 13479  82.8958 296.5993 0035931 115.8658 244.6261 14.67150832889405
1 13480U 81053GA  18212.43377703  .00000366  00000-0  27506-3 0  9999
2 13480  82.9653 199.3572 0074221  43.4361 113.6157 13.90564945821869
1 13481U 81053GB  18211.81784270  .00000812  00000-0  30131-3 0  9996
2 13481  83.0011 227.1363 0044624  40.4109 320.0378 14.30556273851478
1 13482U 81053GC  18211.90261213 +.00003515 +00000-0 +68209-3 0  9994
2 13482 082.8922 026.6598 0043133 039.1771 321.2541 14.62397463857440
1 13483U 81053GD  18211.46414613  .00000398  00000-0  21122-3 0  9999
2 13483  82.9262 210.3567 0012305  44.4804 107.8797 14.11306350840712
1 13484U 81053GE  18212.52681088  .00000580  00000-0  41368-3 0  9997
2 13484  82.9204  50.1894 0035137  53.9081 335.1029 13.95441232824112
1 13485U 81053GF  18212.18215546  .00000068  00000-0  49773-4 0  9992
2 13485  82.9435 152.5589 0068313 117.5560 308.8271 13.78772083817398
1 13486U 81053GG  18211.76581690 -.00000344  00000-0 -11785-3 0  9992
2 13486  82.8935 340.9746 0013191  15.6408 344.5188 14.38778086854610
1 13487U 81053GH  18211.88051348 +.00000991 +00000-0 +40856-3 0  9995
2 13487 082.9686 357.8872 0065287 185.1822 328.0446 14.24814550834746
1 13488U 81053GJ  18212.18070948  .00000426  00000-0  62052-3 0  9992
2 13488  83.0855 277.0778 0203002 223.3607 164.8642 13.44991483765390
1 13489U 81053GK  18212.12898347  .00000231  00000-0  34914-3 0  9998
2 13489  83.1390  91.8226 0237329 208.5608 308.1599 13.38327832756939
1 13490U 81053GL  18210.71711459 +.00000074 +00000-0 +59609-4 0  9995
2 13490 082.8380 117.5803 0066582 204.1504 184.6093 13.75969720813244
1 13498U 81041C   18212.56425770  .00000212  00000-0  52541-4 0  9995
2 13498  74.0189  51.9412 0009805 142.8634 248.5031 14.58061740984536
1 13510U 82087C   18211.94207811 +.00000072 +00000-0 +24158-3 0  9992
2 13510 044.5772 055.2603 0175406 075.3812 064.1096 13.55863570220329
1 13619U 81053GM  18212.16502872  .00000269  00000-0  16958-3 0  9991
2 13619  83.0377 153.7180 0031794 145.6256 313.4318 14.00350594819808
1 13720U 82116C   18212.21697772  .00000022  00000-0  51956-5 0  9991
2 13720  81.2498 291.5381 0054514 258.2457 130.9952 14.15489972839456
1 13796U 81053GQ  18212.18675236  .00000362  00000-0  33374-3 0  9999
2 13796  83.0238 106.0940 0120162 310.2345 204.9100 13.77118524786266
1 13797U 81053GR  18212.36518084  .00000194  00000-0  16020-3 0  9999
2 13797  82.8394 346.2486 0053766 113.3098 276.4425 13.83525842805563
1 13798U 81053GS  18211.96122030 -.00000153  00000-0 -16775-3 0  9991
2 13798  83.0101  67.0206 0083846 284.2766  74.9090 13.76034787846247
1 13799U 81053GT  18211.90757123  .00000353  00000-0  34789-3 0  9998
2 13799  83.1351 269.9759 0088932 287.3093 195.9607 13.74512245788397
1 13800U 81053GU  18211.76860134  .00000535  00000-0  62296-3 0  9998
2 13800  83.2300  10.6095 0177466   7.0332  55.4909 13.60635186762148
1 13801U 81053GV  18211.98180959  .00000454  00000-0  26271-3 0  9996
2 13801  82.8042 133.6703 0038868 170.6883 189.5020 14.06504925814103
1 13802U 81053GW  18211.17343676  .00000285  00000-0  27515-3 0  9999
2 13802  82.8029 104.5825 0063449 340.1963 174.9240 13.75919478829350
1 13803U 81053GX  18212.54935657  .00000438  00000-0  28178-3 0  9994
2 13803  82.8195 236.0389 0051582  20.4688 136.6526 14.00436321809415
1 13804U 81053GY  18211.90782462  .00000676  00000-0  35823-3 0  9997
2 13804  82.9542   3.6786 0049439  29.5180 126.2815 14.11713351813073
1 13807U 81053HB  18211.60529425  .00000056  00000-0  19487-4 0  9996
2 13807  82.9547 164.0405 0016226 103.6800 256.6187 14.16861136571129
1 13808U 81053HC  18211.57359302 +.00000095 +00000-0 +66696-4 0  9995
2 13808 083.0368 334.4783 0065991 088.7867 041.8975 13.86549724790689
1 13809U 81053HD  18211.77778569  .00000481  00000-0  12173-3 0  9997
2 13809  82.8305 327.6376 0036732  40.9451 110.3871 14.48660685855420
1 13810U 81053HE  18212.19181869  .00000228  00000-0  25726-3 0  9994
2 13810  83.0136 282.2477 0128452 358.2029  29.9944 13.63150960763871
1 13811U 81053HF  18211.28796088  .00000469  00000-0  28258-3 0  9999
2 13811  82.9433 323.3266 0023440 322.1132  66.8747 14.04716652809525
1 13812U 81053HG  18211.73045524 +.00000734 +00000-0 +37378-3 0  9990
2 13812 083.2581 047.4506 0044548 054.6303 076.8419 14.13988704817024
1 13813U 81053HH  18211.79885240 +.00000464 +00000-0 +27913-3 0  9998
2 13813 082.9403 327.2622 0049699 322.0249 191.6796 14.04243525808899
1 13814U 81053HJ  18212.22125565  .00000632  00000-0  24499-3 0  9998
2 13814  82.9346 118.2744 0015485 352.5178 164.0621 14.28586695825348
1 13815U 81053HK  18211.90214966 +.00000411 +00000-0 +40004-3 0  9992
2 13815 083.0301 187.6673 0114935 224.9972 163.6075 13.74355693773349
1 13816U 81053HL  18211.55589253 +.00000285 +00000-0 +23568-3 0  9993
2 13816 082.9874 059.3964 0162486 051.3827 338.7851 13.79588581762520
1 13817U 81053HM  18212.34716999  .00000315  00000-0  20235-3 0  9993
2 13817  82.9471 348.9764 0028768 137.6988 222.6408 13.99961954852989
1 14209U 83075C   18211.98439415  .00000176  00000-0  11824-4 0  9999
2 14209  97.3192 270.8251 0027478 161.4448 198.7795 15.18003181915841
1 14222U 83063C   18211.38227590  .00000183  00000-0  32397-4 0  9990
2 14222  82.3749 153.7564 0020769  60.5486 299.7786 14.62089513856084
1 14223U 83063D   18211.86104309  .00000155  00000-0  46061-4 0  9998
2 14223  81.6559 170.4451 0056567 116.9257 273.1233 14.37230757831866
